[
    {
        "CCSDS_OMM_VERS": "3.0",
        "COMMENT": "GENERATED VIA SPACE-TRACK.ORG API",
        "CREATION_DATE": "2025-03-02T18:08:23",
        "ORIGINATOR": "18 SPCS",
        "OBJECT_NAME": "NAVSTAR 65 (USA 213)",
        "OBJECT_ID": "2010-022A",
        "CENTER_NAME": "EARTH",
        "REF_FRAME": "TEME",
        "TIME_SYSTEM": "UTC",
        "MEAN_ELEMENT_THEORY": "SGP4",
        "EPOCH": "2025-03-02T07:22:38.656704",
        "MEAN_MOTION": "2.00564399",
        "ECCENTRICITY": "0.01217080",
        "INCLINATION": "54.3681",
        "RA_OF_ASC_NODE": "227.5796",
        "ARG_OF_PERICENTER": "63.6408",
        "MEAN_ANOMALY": "300.6457",
        "EPHEMERIS_TYPE": "0",
        "CLASSIFICATION_TYPE": "U",
        "NORAD_CAT_ID": "36585",
        "ELEMENT_SET_NO": "999",
        "REV_AT_EPOCH": "10813",
        "BSTAR": "0.00000000000000",
        "MEAN_MOTION_DOT": "0.00000049",
        "MEAN_MOTION_DDOT": "0.0000000000000",
        "SEMIMAJOR_AXIS": "26560.278",
        "PERIOD": "717.974",
        "APOAPSIS": "20505.402",
        "PERIAPSIS": "19858.883",
        "OBJECT_TYPE": "PAYLOAD",
        "RCS_SIZE": "LARGE",
        "COUNTRY_CODE": "US",
        "LAUNCH_DATE": "2010-05-28",
        "SITE": "AFETR",
        "DECAY_DATE": null,
        "FILE": "4657142",
        "GP_ID": "282082534",
        "TLE_LINE0": "0 NAVSTAR 65 (USA 213)",
        "TLE_LINE1": "1 36585U 10022A   25061.30739186  .00000049  00000-0  00000-0 0  9996",
        "TLE_LINE2": "2 36585  54.3681 227.5796 0121708  63.6408 300.6457  2.00564399108136"
    }
]